IRIDIUM 166             
1 43570U 18061B   25023.63600048  .00000123  00000+0  36769-4 0  9994
2 43570  86.3947 269.6520 0002332  91.8300 268.3163 14.34217207340365
IRIDIUM 158             
1 43571U 18061C   25023.74382474  .00000067  00000+0  16956-4 0  9990
2 43571  86.3948 269.6166 0001909  93.6782 266.4632 14.34217255340358
IRIDIUM 165             
1 43572U 18061D   25023.62965885 -.00000151  00000+0 -61049-4 0  9990
2 43572  86.3949 269.7009 0002014  82.4275 277.7150 14.34216656340352
IRIDIUM 155             
1 43573U 18061E   25023.59159648  .00000312  00000+0  10448-3 0  9992
2 43573  86.3947 269.6111 0002122  94.6639 265.4799 14.34217585340314
IRIDIUM 154             
1 43574U 18061F   25023.08419407 -.00000219  00000+0 -85190-4 0  9994
2 43574  86.3956 269.9315 0001950  84.5188 275.6230 14.34217610340298
IRIDIUM 163             
1 43575U 18061G   25023.62331503  .00000040  00000+0  73426-5 0  9995
2 43575  86.3946 269.6378 0001900  86.7912 273.3501 14.34217789340347
IRIDIUM 156             
1 43576U 18061H   25023.73748148  .00000163  00000+0  51302-4 0  9999
2 43576  86.3949 269.5968 0002202  95.7678 264.3769 14.34217429340347
IRIDIUM 164             
1 43577U 18061J   25022.95099775  .00000627  00000+0  21693-3 0  9992
2 43577  86.3950 269.9579 0002183  79.1215 281.0227 14.34219373340281
